      2.10          N: GNSS NAV DATA                        RINEX VERSION / TYPE
fic2rin                                 12/29/2019 00:19:54 PGM / RUN BY / DATE
                                                            END OF HEADER
 8 19 12 28 10  0  0.0-1.827813684940e-05-1.250555214938e-12 0.000000000000e+00
    8.000000000000e+00 7.675000000000e+01 4.499473135402e-09-2.596077775460e-01
    3.971159458160e-06 4.928266862407e-03 1.618638634682e-06 5.153603841782e+03
    5.544000000000e+05 8.009374141693e-08-1.524585726098e+00-8.381903171539e-08
    9.698707931601e-01 3.514375000000e+02-2.205963196022e-01-8.402492854697e-09
    2.521533603424e-10 1.000000000000e+00 2.085000000000e+03 0.000000000000e+00
    2.400000000000e+00 0.000000000000e+00 5.122274160385e-09 8.000000000000e+00
    5.472000000000e+05 4.000000000000e+00
 5 19 12 28 10  0  0.0-5.302019417286e-06-5.684341886081e-13 0.000000000000e+00
    9.900000000000e+01-7.012500000000e+01 4.564118685292e-09 2.088081549778e-01
   -3.490597009659e-06 5.782849271782e-03 1.037493348122e-05 5.153575971603e+03
    5.544000000000e+05 0.000000000000e+00 5.553711043614e-01 6.519258022308e-08
    9.516164457761e-01 1.733437500000e+02 8.037022251265e-01-7.971046311788e-09
    2.300095808223e-10 1.000000000000e+00 2.085000000000e+03 0.000000000000e+00
    2.400000000000e+00 0.000000000000e+00-1.117587089539e-08 9.900000000000e+01
    5.472000000000e+05 4.000000000000e+00
 7 19 12 28 10  0  0.0-1.796535216272e-04-8.299139153678e-12 0.000000000000e+00
    5.700000000000e+01-1.221875000000e+01 4.688052419058e-09 2.916734546410e+00
   -7.450580596924e-07 1.321604475379e-02 7.808208465576e-06 5.153703201294e+03
    5.544000000000e+05 3.725290298462e-09 2.691826454245e+00-1.676380634308e-07
    9.541092947561e-01 2.242812500000e+02-2.420453715418e+00-7.749965674321e-09
   -5.278791311418e-10 1.000000000000e+00 2.085000000000e+03 0.000000000000e+00
    2.400000000000e+00 0.000000000000e+00-1.117587089539e-08 5.700000000000e+01
    5.472000000000e+05 4.000000000000e+00
 6 19 12 28 10  0  0.0-1.663705334067e-04-1.068656274583e-11 0.000000000000e+00
    8.600000000000e+01-1.129375000000e+02 4.278749655669e-09-2.309319202426e+00
   -5.761161446571e-06 1.723358407617e-03 3.615394234657e-06 5.153724847794e+03
    5.544000000000e+05 4.470348358154e-08-4.639760010228e-01 5.774199962616e-08
    9.781367455159e-01 3.195937500000e+02-1.199186328341e+00-8.042477858627e-09
   -2.064371703653e-10 1.000000000000e+00 2.085000000000e+03 0.000000000000e+00
    2.400000000000e+00 0.000000000000e+00 4.656612873077e-09 8.600000000000e+01
    5.472000000000e+05 4.000000000000e+00
 4 19 12 28 10  0  0.0-2.636201679707e-05-5.002220859751e-12 0.000000000000e+00
    1.340000000000e+02 1.268750000000e+01 4.805200155874e-09-1.380642659480e+00
    5.792826414108e-07 4.322328604758e-04 6.226822733879e-06 5.153723447800e+03
    5.544000000000e+05 1.676380634308e-08 1.663440535421e+00-3.911554813385e-08
    9.593754341120e-01 2.589687500000e+02-2.713137583585e+00-7.999261772790e-09
    2.471531520637e-10 1.000000000000e+00 2.085000000000e+03 0.000000000000e+00
    2.400000000000e+00 6.300000000000e+01-4.190951585770e-09 9.020000000000e+02
    5.472000000000e+05 4.000000000000e+00
 9 19 12 28 10  0  0.0-1.190081238747e-04-9.208633855451e-12 0.000000000000e+00
    6.600000000000e+01 1.371875000000e+01 4.993779439530e-09 2.705041297542e-02
    6.407499313354e-07 1.721123233438e-03 6.353482604027e-06 5.153528205872e+03
    5.544000000000e+05-2.235174179077e-08 1.616695413716e+00-3.725290298462e-09
    9.520595036827e-01 2.516875000000e+02 1.696298104116e+00-8.133195923113e-09
    3.089414400796e-10 1.000000000000e+00 2.085000000000e+03 0.000000000000e+00
    2.400000000000e+00 0.000000000000e+00 1.396983861923e-09 6.600000000000e+01
    5.472000000000e+05 4.000000000000e+00
20 19 12 28 10  0  0.0 5.277208983898e-04 1.136868377216e-13 0.000000000000e+00
    5.000000000000e+00-7.118750000000e+01 4.906990110120e-09-3.125086693730e+00
   -3.626570105553e-06 5.095625645481e-03 1.081638038158e-05 5.153629478455e+03
    5.544000000000e+05-5.587935447693e-08 4.563132068652e-01 7.264316082001e-08
    9.328706354521e-01 1.559375000000e+02 2.539635710044e+00-8.016405344031e-09
    2.496532562031e-10 1.000000000000e+00 2.085000000000e+03 0.000000000000e+00
    2.400000000000e+00 0.000000000000e+00-8.381903171539e-09 5.000000000000e+00
    5.472000000000e+05 4.000000000000e+00
22 19 12 28 10  0  0.0-7.796590216458e-04-1.705302565824e-12 0.000000000000e+00
    4.000000000000e+01-7.837500000000e+01 4.995922385935e-09-1.417505076136e+00
   -4.027038812637e-06 6.936887162738e-03 1.125037670135e-05 5.153619049072e+03
    5.544000000000e+05-2.030283212662e-07 5.042567174135e-01 8.754432201385e-08
    9.295425728935e-01 1.445312500000e+02-1.249666000485e+00-8.177840639888e-09
    2.717970357232e-10 1.000000000000e+00 2.085000000000e+03 0.000000000000e+00
    2.400000000000e+00 0.000000000000e+00-1.816079020500e-08 4.000000000000e+01
    5.472000000000e+05 4.000000000000e+00
30 19 12 28 10  0  0.0-1.160982064903e-04-8.753886504564e-12 0.000000000000e+00
    2.500000000000e+01-1.184375000000e+01 5.114855911422e-09 2.898708218215e+00
   -6.686896085739e-07 4.160328768194e-03 7.750466465950e-06 5.153703878403e+03
    5.544000000000e+05-3.911554813385e-08 2.716787536397e+00-4.470348358154e-08
    9.394981107817e-01 2.188437500000e+02-2.925713381672e+00-8.126052768429e-09
   -5.489514374594e-10 1.000000000000e+00 2.085000000000e+03 0.000000000000e+00
    2.400000000000e+00 0.000000000000e+00 3.725290298462e-09 2.500000000000e+01
    5.472000000000e+05 4.000000000000e+00
23 19 12 28 10  0  0.0-1.467615365982e-04 2.387423592154e-12 0.000000000000e+00
    2.900000000000e+01 1.490625000000e+01 5.121641908372e-09-1.933839618880e+00
    6.631016731262e-07 1.328664121684e-02 5.908310413361e-06 5.153687959671e+03
    5.544000000000e+05 1.881271600723e-07 1.609538922340e+00-1.117587089539e-07
    9.428768458967e-01 2.518750000000e+02-2.212649107614e+00-8.007119242942e-09
    4.189460222120e-10 1.000000000000e+00 2.085000000000e+03 0.000000000000e+00
    2.400000000000e+00 0.000000000000e+00-2.048909664154e-08 2.900000000000e+01
    5.472000000000e+05 4.000000000000e+00
15 19 12 28 10  0  0.0-2.625789493322e-04 2.614797267597e-12 0.000000000000e+00
    2.200000000000e+01 1.996875000000e+01 5.487371428189e-09-1.366876097110e+00
    1.121312379837e-06 1.210856693797e-02 6.146728992462e-06 5.153608140945e+03
    5.544000000000e+05 2.682209014893e-07 1.531095871009e+00 3.352761268616e-08
    9.276048047720e-01 2.413437500000e+02 8.546449722850e-01-8.375348866898e-09
    3.625151002090e-10 1.000000000000e+00 2.085000000000e+03 0.000000000000e+00
    2.400000000000e+00 0.000000000000e+00-1.117587089539e-08 2.200000000000e+01
    5.472000000000e+05 4.000000000000e+00
10 19 12 28 10  0  0.0-1.887287944555e-04-1.398348103976e-11 0.000000000000e+00
    9.700000000000e+01-5.837500000000e+01 4.275535236061e-09 1.609130864748e+00
   -2.933666110039e-06 5.244147730991e-03 1.120567321777e-05 5.153671012878e+03
    5.544000000000e+05-4.656612873077e-08 5.820530814186e-01 9.685754776001e-08
    9.646915964886e-01 1.675937500000e+02-2.717308856032e+00-7.801039230311e-09
    2.657253542419e-10 1.000000000000e+00 2.085000000000e+03 0.000000000000e+00
    2.400000000000e+00 0.000000000000e+00 1.862645149231e-09 9.700000000000e+01
    5.472000000000e+05 4.000000000000e+00
29 19 12 28 10  0  0.0 7.061753422022e-06-9.663381206337e-12 0.000000000000e+00
    2.500000000000e+01 6.012500000000e+01 4.130172038244e-09-2.651455632341e-01
    2.933666110039e-06 1.030317274854e-03 1.579523086548e-06 5.153649765015e+03
    5.544000000000e+05 2.793967723846e-08-1.442504396041e+00 3.539025783539e-08
    9.855302369359e-01 3.610625000000e+02 2.001551222517e+00-8.158911279975e-09
    2.157232714544e-10 1.000000000000e+00 2.085000000000e+03 0.000000000000e+00
    2.400000000000e+00 0.000000000000e+00-9.778887033463e-09 2.500000000000e+01
    5.472000000000e+05 4.000000000000e+00
28 19 12 28 10  0  0.0 7.483582012355e-04-1.932676241267e-12 0.000000000000e+00
    1.900000000000e+01 9.765625000000e+01 3.820873440430e-09 2.483711915542e-01
    5.098059773445e-06 1.895508868620e-02 1.039542257786e-05 5.153715665817e+03
    5.544000000000e+05-2.644956111908e-07-2.465387596786e+00-1.862645149231e-07
    9.797659593449e-01 1.914375000000e+02-1.424591859466e+00-7.963188841636e-09
   -7.000291590243e-11 1.000000000000e+00 2.085000000000e+03 0.000000000000e+00
    2.400000000000e+00 0.000000000000e+00-1.117587089539e-08 1.900000000000e+01
    5.472000000000e+05 4.000000000000e+00
24 19 12 28 10  0  0.0-6.819609552622e-06-4.547473508865e-13 0.000000000000e+00
    9.200000000000e+01-2.381250000000e+01 5.122356223840e-09-2.426371458968e+00
   -1.249834895134e-06 9.356949361973e-03 7.288530468941e-06 5.153661756516e+03
    5.544000000000e+05 4.284083843231e-08 2.622267806814e+00-1.210719347000e-07
    9.372726261727e-01 2.265000000000e+02 6.404303797188e-01-8.142124866468e-09
   -4.264463346301e-10 1.000000000000e+00 2.085000000000e+03 0.000000000000e+00
    3.400000000000e+00 0.000000000000e+00 2.793967723846e-09 9.200000000000e+01
    5.472000000000e+05 4.000000000000e+00
27 19 12 28 10  0  0.0-1.639793626964e-04-1.148237060988e-11 0.000000000000e+00
    7.100000000000e+01 7.096875000000e+01 4.354824253053e-09-4.703085549934e-01
    3.788620233536e-06 7.552199997008e-03 1.376494765282e-06 5.153658065796e+03
    5.544000000000e+05 1.173466444016e-07-1.511507466684e+00 3.725290298462e-08
    9.782325008188e-01 3.625312500000e+02 4.972307446621e-01-8.353205087378e-09
    2.400099973798e-10 1.000000000000e+00 2.085000000000e+03 0.000000000000e+00
    2.400000000000e+00 0.000000000000e+00 1.862645149231e-09 7.100000000000e+01
    5.472000000000e+05 4.000000000000e+00
